{"type":"FeatureCollection","features":[{"type":"Feature","geometry":null,"properties":{"pending":true,"agency":"Ohio State Highway Patrol","county":"Clark","location":"location not yet announced","announcedFor":"2026-08-14","sourceUrl":"https://statepatrol.ohio.gov/wps/wcm/connect/gov/Ohio+Content+English/oshp/media/all-news/ovi-checkpoint-08142026","notes":[]}},{"type":"Feature","geometry":null,"properties":{"pending":true,"agency":"Ohio State Highway Patrol","county":"Lake","location":"location not yet announced","announcedFor":"2026-08-14","sourceUrl":"https://statepatrol.ohio.gov/wps/wcm/connect/gov/Ohio+Content+English/oshp/media/all-news/ovi-checkpoint-08142026","notes":[]}},{"type":"Feature","geometry":null,"properties":{"pending":true,"agency":"Ohio State Highway Patrol","county":"Mahoning","location":"location not yet announced","announcedFor":"2026-08-14","sourceUrl":"https://statepatrol.ohio.gov/wps/wcm/connect/gov/Ohio+Content+English/oshp/media/all-news/ovi-checkpoint-08142026","notes":[]}},{"type":"Feature","geometry":{"type":"Point","coordinates":[-84.188904,39.783081]},"properties":{"agency":"Combined Agency OVI Task Force of Montgomery County","county":"Montgomery","location":"in the area of North Keowee Street and Leo Street","kind":"vicinity","confidence":"low","method":"intersection of North Keowee Street and Leo Street","jurisdictionMatch":"unchecked","sourceUrl":"https://www.daytonohio.gov/Archive.aspx?ADID=895","notes":[]}},{"type":"Feature","geometry":null,"properties":{"pending":true,"agency":"Ohio State Highway Patrol","county":"Ross","location":"location not yet announced","announcedFor":"2026-08-14","sourceUrl":"https://statepatrol.ohio.gov/wps/wcm/connect/gov/Ohio+Content+English/oshp/media/all-news/ovi-checkpoint-08142026","notes":[]}},{"type":"Feature","geometry":null,"properties":{"pending":true,"agency":"Ohio State Highway Patrol","county":"Seneca","location":"location not yet announced","announcedFor":"2026-08-14","sourceUrl":"https://statepatrol.ohio.gov/wps/wcm/connect/gov/Ohio+Content+English/oshp/media/all-news/ovi-checkpoint-08142026","notes":[]}},{"type":"Feature","geometry":null,"properties":{"pending":true,"agency":"Ohio State Highway Patrol","county":"Summit","location":"location not yet announced","announcedFor":"2026-08-14","sourceUrl":"https://statepatrol.ohio.gov/wps/wcm/connect/gov/Ohio+Content+English/oshp/media/all-news/ovi-checkpoint-08142026","notes":[]}},{"type":"Feature","geometry":{"type":"Point","coordinates":[-84.186536,39.740421]},"properties":{"agency":"Combined Agency OVI Task Force of Montgomery County","county":"Montgomery","location":"in the area of South Main Street and East Stewart Street","kind":"vicinity","startsAt":"2016-04-30T01:00:00.000Z","endsAt":"2016-04-30T05:00:00.000Z","confidence":"low","method":"intersection of South Main Street and East Stewart Street","jurisdictionMatch":"unchecked","sourceUrl":"https://www.daytonohio.gov/Archive.aspx?ADID=119","notes":[]}},{"type":"Feature","geometry":{"type":"Point","coordinates":[-84.25374635,39.783350049999996]},"properties":{"agency":"Combined Agency OVI Task Force of Montgomery County","county":"Montgomery","location":"in the area of North Gettysburg Avenue and Kings Highway","kind":"vicinity","startsAt":"2017-06-24T01:00:00.000Z","confidence":"low","method":"intersection of North Gettysburg Avenue and Kings Highway","jurisdictionMatch":"unchecked","sourceUrl":"https://www.daytonohio.gov/Archive.aspx?ADID=926","notes":[]}},{"type":"Feature","geometry":{"type":"Point","coordinates":[-84.1717196,39.7627772]},"properties":{"agency":"Combined Agency OVI Task Force of Montgomery County","county":"Montgomery","location":"in the area of East Third and Terry Streets","kind":"vicinity","startsAt":"2017-10-21T00:00:00.000Z","endsAt":"2017-10-21T05:00:00.000Z","confidence":"low","method":"intersection of East Third and Terry Streets","jurisdictionMatch":"unchecked","sourceUrl":"https://www.daytonohio.gov/Archive.aspx?ADID=986","notes":[]}},{"type":"Feature","geometry":{"type":"Point","coordinates":[-84.177135,39.7579411]},"properties":{"agency":"Combined Agency OVI Task Force of Montgomery County","county":"Montgomery","location":"in the area of South Keowee and East Fifth Streets","kind":"vicinity","startsAt":"2017-10-21T00:00:00.000Z","endsAt":"2017-10-21T05:00:00.000Z","confidence":"low","method":"intersection of South Keowee and East Fifth Streets","jurisdictionMatch":"unchecked","sourceUrl":"https://www.daytonohio.gov/Archive.aspx?ADID=986","notes":[]}},{"type":"Feature","geometry":{"type":"Point","coordinates":[-84.2415676,39.7907609]},"properties":{"agency":"Combined Agency OVI Task Force of Montgomery County","county":"Montgomery","location":"in the area of Salem Avenue and West Hillcrest Avenue","kind":"vicinity","startsAt":"2018-04-07T01:00:00.000Z","confidence":"low","method":"intersection of Salem Avenue and West Hillcrest Avenue","jurisdictionMatch":"unchecked","sourceUrl":"https://www.daytonohio.gov/Archive.aspx?ADID=1089","notes":[]}},{"type":"Feature","geometry":{"type":"Point","coordinates":[-84.1717196,39.7627772]},"properties":{"agency":"Combined Agency OVI Task Force of Montgomery County","county":"Montgomery","location":"in the area of East Third Street and Terry Street","kind":"vicinity","startsAt":"2018-06-23T00:00:00.000Z","endsAt":"2018-06-23T05:00:00.000Z","confidence":"low","method":"intersection of East Third Street and Terry Street","jurisdictionMatch":"unchecked","sourceUrl":"https://www.daytonohio.gov/Archive.aspx?ADID=1138","notes":[]}},{"type":"Feature","geometry":{"type":"Point","coordinates":[-84.177135,39.7579411]},"properties":{"agency":"Combined Agency OVI Task Force of Montgomery County","county":"Montgomery","location":"in the area of South Keowee Street near East Fifth Street","kind":"vicinity","startsAt":"2018-06-23T00:00:00.000Z","endsAt":"2018-06-23T05:00:00.000Z","confidence":"low","method":"intersection of South Keowee Street and East Fifth Street","jurisdictionMatch":"unchecked","sourceUrl":"https://www.daytonohio.gov/Archive.aspx?ADID=1138","notes":[]}},{"type":"Feature","geometry":{"type":"Point","coordinates":[-84.25374635,39.783350049999996]},"properties":{"agency":"Combined Agency OVI Task Force of Montgomery County","county":"Montgomery","location":"in the area of North Gettysburg Avenue and Kings Highway","kind":"vicinity","startsAt":"2018-08-25T02:30:00.000Z","endsAt":"2018-08-25T05:00:00.000Z","confidence":"low","method":"intersection of North Gettysburg Avenue and Kings Highway","jurisdictionMatch":"unchecked","sourceUrl":"https://www.daytonohio.gov/Archive.aspx?ADID=1159","notes":[]}},{"type":"Feature","geometry":{"type":"Point","coordinates":[-84.1717196,39.7627772]},"properties":{"agency":"Combined Agency OVI Task Force of Montgomery County","county":"Montgomery","location":"in the area of East Third and Terry Streets","kind":"vicinity","startsAt":"2018-10-20T00:00:00.000Z","endsAt":"2018-10-20T05:00:00.000Z","confidence":"low","method":"intersection of East Third and Terry Streets","jurisdictionMatch":"unchecked","sourceUrl":"https://www.daytonohio.gov/Archive.aspx?ADID=1185","notes":[]}},{"type":"Feature","geometry":{"type":"Point","coordinates":[-84.177135,39.7579411]},"properties":{"agency":"Combined Agency OVI Task Force of Montgomery County","county":"Montgomery","location":"in the area of South Keowee and East Fifth Streets","kind":"vicinity","startsAt":"2018-10-20T00:00:00.000Z","endsAt":"2018-10-20T05:00:00.000Z","confidence":"low","method":"intersection of South Keowee and East Fifth Streets","jurisdictionMatch":"unchecked","sourceUrl":"https://www.daytonohio.gov/Archive.aspx?ADID=1185","notes":[]}},{"type":"Feature","geometry":{"type":"Point","coordinates":[-84.1717196,39.7627772]},"properties":{"agency":"Combined Agency OVI Task Force of Montgomery County","county":"Montgomery","location":"in the area of East Third Street and Terry Street","kind":"vicinity","startsAt":"2019-04-25T23:00:00.000Z","endsAt":"2019-04-26T03:00:00.000Z","confidence":"low","method":"intersection of East Third Street and Terry Street","jurisdictionMatch":"unchecked","sourceUrl":"https://www.daytonohio.gov/Archive.aspx?ADID=1292","notes":[]}},{"type":"Feature","geometry":{"type":"Point","coordinates":[-84.25374635,39.783350049999996]},"properties":{"agency":"Combined Agency OVI Task Force of Montgomery County","county":"Montgomery","location":"in the area of North Gettysburg Avenue and Kings Highway","kind":"vicinity","startsAt":"2020-05-22T23:00:00.000Z","endsAt":"2020-05-23T03:00:00.000Z","confidence":"low","method":"intersection of North Gettysburg Avenue and Kings Highway","jurisdictionMatch":"unchecked","sourceUrl":"https://www.daytonohio.gov/Archive.aspx?ADID=1523","notes":[]}},{"type":"Feature","geometry":{"type":"Point","coordinates":[-84.139462,39.748087]},"properties":{"agency":"Combined Agency OVI Task Force of Montgomery County","county":"Montgomery","location":"in the area of South Smithville Road and Linden Avenue","kind":"vicinity","startsAt":"2020-06-26T00:00:00.000Z","endsAt":"2020-06-26T04:00:00.000Z","confidence":"low","method":"intersection of South Smithville Road and Linden Avenue","jurisdictionMatch":"unchecked","sourceUrl":"https://www.daytonohio.gov/Archive.aspx?ADID=1550","notes":[]}},{"type":"Feature","geometry":{"type":"Point","coordinates":[-84.177135,39.7579411]},"properties":{"agency":"Combined Agency OVI Task Force of Montgomery County","county":"Montgomery","location":"in the area of South Keowee Street and East Fifth Street","kind":"vicinity","startsAt":"2020-08-27T22:00:00.000Z","endsAt":"2020-08-28T02:00:00.000Z","confidence":"low","method":"intersection of South Keowee Street and East Fifth Street","jurisdictionMatch":"unchecked","sourceUrl":"https://www.daytonohio.gov/Archive.aspx?ADID=1602","notes":[]}},{"type":"Feature","geometry":{"type":"Point","coordinates":[-84.22407150000001,39.754211]},"properties":{"agency":"Combined Agency OVI Task Force of Montgomery County","county":"Montgomery","location":"in the area of West Third Street and James H. McGee Boulevard","kind":"vicinity","startsAt":"2021-06-26T00:00:00.000Z","endsAt":"2021-06-26T05:00:00.000Z","confidence":"low","method":"intersection of West Third Street and James H. McGee Boulevard","jurisdictionMatch":"unchecked","sourceUrl":"https://www.daytonohio.gov/Archive.aspx?ADID=1815","notes":[]}},{"type":"Feature","geometry":{"type":"Point","coordinates":[-84.2530642,39.74940615]},"properties":{"agency":"Combined Agency OVI Task Force of Montgomery County","county":"Montgomery","location":"in the area of West Third Street and North Gettysburg Avenue","kind":"vicinity","startsAt":"2021-06-26T00:00:00.000Z","endsAt":"2021-06-26T05:00:00.000Z","confidence":"low","method":"intersection of West Third Street and North Gettysburg Avenue","jurisdictionMatch":"unchecked","sourceUrl":"https://www.daytonohio.gov/Archive.aspx?ADID=1815","notes":[]}},{"type":"Feature","geometry":{"type":"Point","coordinates":[-84.1717196,39.7627772]},"properties":{"agency":"Combined Agency OVI Task Force of Montgomery County","county":"Montgomery","location":"in the area of East Third Street and Terry Street","kind":"vicinity","startsAt":"2022-03-18T23:00:00.000Z","endsAt":"2022-03-19T04:00:00.000Z","confidence":"low","method":"intersection of East Third Street and Terry Street","jurisdictionMatch":"unchecked","sourceUrl":"https://www.daytonohio.gov/Archive.aspx?ADID=2063","notes":[]}},{"type":"Feature","geometry":{"type":"Point","coordinates":[-84.177135,39.7579411]},"properties":{"agency":"Combined Agency OVI Task Force of Montgomery County","county":"Montgomery","location":"in the area of South Keowee Street and East Fifth Street","kind":"vicinity","startsAt":"2022-03-18T23:00:00.000Z","endsAt":"2022-03-19T04:00:00.000Z","confidence":"low","method":"intersection of South Keowee Street and East Fifth Street","jurisdictionMatch":"unchecked","sourceUrl":"https://www.daytonohio.gov/Archive.aspx?ADID=2063","notes":[]}},{"type":"Feature","geometry":{"type":"Point","coordinates":[-84.139462,39.748087]},"properties":{"agency":"Combined Agency OVI Task Force of Montgomery County","county":"Montgomery","location":"in the area of South Smithville Road at Linden Avenue","kind":"vicinity","startsAt":"2022-05-20T23:00:00.000Z","endsAt":"2022-05-21T04:00:00.000Z","confidence":"low","method":"intersection of South Smithville Road and Linden Avenue","jurisdictionMatch":"unchecked","sourceUrl":"https://www.daytonohio.gov/Archive.aspx?ADID=2131","notes":[]}},{"type":"Feature","geometry":{"type":"Point","coordinates":[-84.25374635,39.783350049999996]},"properties":{"agency":"Combined Agency OVI Task Force of Montgomery County","county":"Montgomery","location":"in the area of Gettysburg Avenue and Kings Highway","kind":"vicinity","startsAt":"2022-05-29T23:00:00.000Z","endsAt":"2022-05-30T03:00:00.000Z","confidence":"low","method":"intersection of Gettysburg Avenue and Kings Highway","jurisdictionMatch":"unchecked","sourceUrl":"https://www.daytonohio.gov/Archive.aspx?ADID=2139","notes":[]}},{"type":"Feature","geometry":{"type":"Point","coordinates":[-84.248686674416,39.769810141304]},"properties":{"agency":"Combined Agency OVI Task Force of Montgomery County","county":"Montgomery","location":"in the area of 2222 James H. McGee Blvd","kind":"address","startsAt":"2022-08-27T23:00:00.000Z","endsAt":"2022-08-28T05:00:00.000Z","confidence":"low","method":"street address via Census Bureau geocoder","jurisdictionMatch":"unchecked","sourceUrl":"https://www.daytonohio.gov/Archive.aspx?ADID=2241","notes":["matched as 2222 N JAMES H MCGEE BLVD, DAYTON, OH, 45417","the notice places this only \"in the area of\""]}},{"type":"Feature","geometry":{"type":"Point","coordinates":[-84.1717196,39.7627772]},"properties":{"agency":"Combined Agency OVI Task Force of Montgomery County","county":"Montgomery","location":"in the area of East Third Street at Terry Street","kind":"vicinity","startsAt":"2022-09-22T22:00:00.000Z","endsAt":"2022-09-23T03:00:00.000Z","confidence":"low","method":"intersection of East Third Street and Terry Street","jurisdictionMatch":"unchecked","sourceUrl":"https://www.daytonohio.gov/Archive.aspx?ADID=2269","notes":[]}},{"type":"Feature","geometry":{"type":"Point","coordinates":[-84.177135,39.7579411]},"properties":{"agency":"Combined Agency OVI Task Force of Montgomery County","county":"Montgomery","location":"in the area of South Keowee Street at East Fifth Street","kind":"vicinity","startsAt":"2022-09-22T22:00:00.000Z","endsAt":"2022-09-23T03:00:00.000Z","confidence":"low","method":"intersection of South Keowee Street and East Fifth Street","jurisdictionMatch":"unchecked","sourceUrl":"https://www.daytonohio.gov/Archive.aspx?ADID=2269","notes":[]}},{"type":"Feature","geometry":{"type":"Point","coordinates":[-84.167548,39.820087]},"properties":{"agency":"Combined Agency OVI Task Force of Montgomery County","county":"Montgomery","location":"in the area of Needmore Road and Wagner Ford Road","kind":"vicinity","startsAt":"2024-06-29T02:00:00.000Z","endsAt":"2024-06-29T04:00:00.000Z","confidence":"low","method":"intersection of Needmore Road and Wagner Ford Road","jurisdictionMatch":"unchecked","sourceUrl":"https://www.daytonohio.gov/Archive.aspx?ADID=2890","notes":[]}},{"type":"Feature","geometry":{"type":"Point","coordinates":[-84.186536,39.740421]},"properties":{"agency":"Combined Agency OVI Task Force of Montgomery County","county":"Montgomery","location":"in the area of South Main Street and West Stewart Street","kind":"vicinity","startsAt":"2025-08-22T23:00:00.000Z","endsAt":"2025-08-23T04:00:00.000Z","confidence":"low","method":"intersection of South Main Street and West Stewart Street","jurisdictionMatch":"unchecked","sourceUrl":"https://www.daytonohio.gov/Archive.aspx?ADID=3344","notes":[]}},{"type":"Feature","geometry":{"type":"Point","coordinates":[-84.19191505,39.74007085]},"properties":{"agency":"Combined Agency OVI Task Force of Montgomery County","county":"Montgomery","location":"in the area of South Patterson Boulevard and West Stewart Street","kind":"vicinity","startsAt":"2025-08-22T23:00:00.000Z","endsAt":"2025-08-23T04:00:00.000Z","confidence":"low","method":"intersection of South Patterson Boulevard and West Stewart Street","jurisdictionMatch":"unchecked","sourceUrl":"https://www.daytonohio.gov/Archive.aspx?ADID=3344","notes":[]}},{"type":"Feature","geometry":{"type":"Point","coordinates":[-83.1148365,39.9341555]},"properties":{"agency":"Franklin County Sheriff's Office","county":"Franklin","location":"Georgesville Road and Clime Road in Franklin Township","kind":"intersection","startsAt":"2026-05-02T00:00:00.000Z","endsAt":"2026-05-02T04:30:00.000Z","confidence":"high","method":"intersection of Georgesville Road and Clime Road","jurisdictionMatch":"township","sourceUrl":"https://sheriff.franklincountyohio.gov/About-Us/Public-Affairs-Media-Relations/2026/05-01-Sobriety-Checkpoint-tonight-05-01-2026-in-Franklin-Township","notes":[]}},{"type":"Feature","geometry":{"type":"Point","coordinates":[-82.6141556994484,39.02228485742452]},"properties":{"agency":"Ohio State Highway Patrol","county":"Jackson","location":"state Route 93 near milepost 14","kind":"milepost","startsAt":"2026-05-14T22:00:00.000Z","endsAt":"2026-05-15T00:00:00.000Z","confidence":"medium","method":"state Route 93 at Jackson county milepost 14","jurisdictionMatch":"unchecked","sourceUrl":"https://statepatrol.ohio.gov/wps/wcm/connect/gov/Ohio+Content+English/oshp/media/all-news/patrol-announces-locations-for-statewide-ovi-checkpoint","notes":["state Route 93 also signed as: BRIDGE ST, BROADWAY ST, CHILLICOTHE ST, JACKSON ST"]}},{"type":"Feature","geometry":{"type":"Point","coordinates":[-82.90742603964557,38.851900418244966]},"properties":{"agency":"Ohio State Highway Patrol","county":"Scioto","location":"state Route 139 at milepost 8","kind":"milepost","startsAt":"2026-05-14T22:00:00.000Z","endsAt":"2026-05-15T00:00:00.000Z","confidence":"medium","method":"state Route 139 at Scioto county milepost 8","jurisdictionMatch":"unchecked","sourceUrl":"https://statepatrol.ohio.gov/wps/wcm/connect/gov/Ohio+Content+English/oshp/media/all-news/patrol-announces-locations-for-statewide-ovi-checkpoint","notes":["state Route 139 also signed as: HARRISONVILLE AVE, PARK ST, SR 139"]}},{"type":"Feature","geometry":{"type":"Point","coordinates":[-83.6278728,41.5612283]},"properties":{"agency":"Ohio State Highway Patrol","county":"Wood","location":"East Front Street at Elm Street in Perrysburg","kind":"intersection","startsAt":"2026-05-14T22:00:00.000Z","endsAt":"2026-05-15T01:00:00.000Z","confidence":"high","method":"intersection of East Front Street and Elm Street","jurisdictionMatch":"city","sourceUrl":"https://statepatrol.ohio.gov/wps/wcm/connect/gov/Ohio+Content+English/oshp/media/all-news/patrol-announces-locations-for-statewide-ovi-checkpoint","notes":[]}},{"type":"Feature","geometry":{"type":"Point","coordinates":[-82.24077541134483,40.624190475637654]},"properties":{"agency":"Ohio State Highway Patrol","county":"Ashland","location":"state Route 3 near milepost 5","kind":"milepost","startsAt":"2026-05-14T23:00:00.000Z","endsAt":"2026-05-15T02:00:00.000Z","confidence":"medium","method":"state Route 3 at Ashland county milepost 5","jurisdictionMatch":"unchecked","sourceUrl":"https://statepatrol.ohio.gov/wps/wcm/connect/gov/Ohio+Content+English/oshp/media/all-news/patrol-announces-locations-for-statewide-ovi-checkpoint","notes":["state Route 3 also signed as: SR 3, WOOSTER RD, E MAIN ST, E WASHINGTON ST","state Route 3 signed there as S MARKET ST"]}},{"type":"Feature","geometry":{"type":"LineString","coordinates":[[-84.4926818,39.3173477],[-84.4929451,39.3174706],[-84.4932893,39.3176313],[-84.4938746,39.3179045],[-84.494844,39.318357],[-84.4950964,39.3184663],[-84.4954175,39.3186054],[-84.4955724,39.3186856],[-84.4957714,39.318779],[-84.4958868,39.3188329],[-84.4960934,39.3189295],[-84.4961478,39.3189555],[-84.4964836,39.3191119],[-84.4966021,39.3191668],[-84.4968226,39.3192683],[-84.4969227,39.3193145],[-84.497151,39.3194199],[-84.4973356,39.3195051],[-84.4975906,39.3196242],[-84.4981535,39.3198871],[-84.4982355,39.3199212],[-84.498575,39.3200807],[-84.4986883,39.3201339],[-84.4987803,39.3201771],[-84.4988714,39.3202199],[-84.4993079,39.320425],[-84.4995267,39.3205278],[-84.4997571,39.320636],[-84.5000158,39.3207575],[-84.5007069,39.3210822],[-84.5008681,39.3211579],[-84.5010588,39.3212475],[-84.5013292,39.3213763],[-84.5015141,39.3214644],[-84.5019437,39.3216691],[-84.5019782,39.3216855],[-84.5021721,39.3217779],[-84.5023803,39.3218771],[-84.5023952,39.3218845],[-84.5028059,39.3220895],[-84.5030124,39.3221944],[-84.5033247,39.3223452],[-84.5035406,39.3224563],[-84.5036047,39.3224887],[-84.5038818,39.322629],[-84.5042643,39.3228317],[-84.504779,39.3231209],[-84.5052647,39.3234082],[-84.5055143,39.3235578],[-84.5057504,39.3236956],[-84.5062534,39.3239932],[-84.5066375,39.3242076],[-84.5067847,39.3242915],[-84.5070981,39.3244702],[-84.5073106,39.3245914],[-84.5075352,39.3247195],[-84.5080096,39.3250029],[-84.5080948,39.3250538],[-84.5082252,39.3251317],[-84.5085957,39.3253531],[-84.5089012,39.3255354],[-84.5091738,39.3256981],[-84.5094761,39.3258719],[-84.5098241,39.3260718],[-84.5105348,39.3264802],[-84.510621,39.3265295],[-84.5107125,39.3265784],[-84.5113186,39.3269179],[-84.5119247,39.3272552],[-84.5123866,39.3275041],[-84.513037,39.3278546],[-84.5135591,39.3281415],[-84.5137888,39.3282677],[-84.5139901,39.3283783],[-84.5141089,39.3284435],[-84.5144708,39.3286424],[-84.5149181,39.3288926],[-84.5155038,39.3292204],[-84.5157293,39.3293449],[-84.5159845,39.3294859],[-84.5162934,39.3296364],[-84.5169859,39.3300128],[-84.517025,39.3300334],[-84.517171,39.3301102],[-84.5172457,39.3301495],[-84.5174025,39.330232],[-84.5176769,39.3303827],[-84.517917,39.3305146],[-84.5184159,39.3307841],[-84.5188026,39.3309929],[-84.5189778,39.3310875],[-84.5191573,39.3311845],[-84.5193669,39.3313009],[-84.5197147,39.331494],[-84.5200385,39.3316737],[-84.5206072,39.3319895],[-84.5209336,39.332175],[-84.521064,39.3322486],[-84.5212417,39.3323488],[-84.5214583,39.332462],[-84.521749,39.3326057],[-84.521946,39.3327132],[-84.5221619,39.3328307],[-84.5224725,39.3330001],[-84.522657,39.3331026],[-84.5227163,39.3331355],[-84.5229859,39.3332865],[-84.5230449,39.3333191],[-84.5232895,39.3334568],[-84.5233878,39.333511],[-84.5235007,39.3335737],[-84.5236628,39.3336636],[-84.5237991,39.3337409],[-84.52399,39.3338454],[-84.524308,39.3340195],[-84.5244861,39.3341161],[-84.5248904,39.3343346],[-84.5253577,39.3345891],[-84.5259617,39.3349165],[-84.5264042,39.3351691],[-84.5265151,39.3352334],[-84.5267079,39.3353339],[-84.5269497,39.3354603],[-84.5270127,39.3354932],[-84.5273469,39.3356643],[-84.5273917,39.3356872],[-84.5276157,39.3358019],[-84.5277395,39.3358653],[-84.5280274,39.3360127],[-84.5281468,39.3360738],[-84.5285812,39.3362962],[-84.528748,39.3363669],[-84.5287947,39.336393],[-84.5289369,39.3364725],[-84.5291266,39.3365786],[-84.5293644,39.3367115],[-84.5296374,39.3368641],[-84.5297811,39.3369445],[-84.5299707,39.3370504],[-84.5300537,39.3370968],[-84.5301866,39.3371712],[-84.5302795,39.3372231],[-84.5303992,39.33729],[-84.5306829,39.3374486],[-84.5309626,39.3376049],[-84.5310156,39.3376346],[-84.5313446,39.3378186],[-84.531693,39.3380133],[-84.5321287,39.3382569],[-84.5322501,39.3383247],[-84.5324679,39.3384465],[-84.5324992,39.338464],[-84.5325566,39.3384973],[-84.5329373,39.3387181],[-84.5331557,39.3388448],[-84.5331691,39.3388526],[-84.5332321,39.3388892],[-84.5333832,39.3389818],[-84.5335502,39.3390966],[-84.5335726,39.3391132],[-84.5336484,39.3391695],[-84.533923,39.3393735],[-84.5340033,39.3394332],[-84.5341421,39.3395335],[-84.5342535,39.3396468],[-84.5344632,39.3398601],[-84.5345686,39.3399672],[-84.5346675,39.3400678],[-84.5347364,39.3401378],[-84.5348288,39.3402318],[-84.5349006,39.3403063],[-84.535045,39.340456],[-84.5354427,39.3408373],[-84.535577,39.3409995],[-84.5361347,39.3415916],[-84.5363803,39.3418523],[-84.5364813,39.3419593],[-84.5365313,39.3420122],[-84.5368577,39.3423577],[-84.5369306,39.3424349],[-84.537001,39.3425097],[-84.5371228,39.342639],[-84.5373328,39.3428762],[-84.5376214,39.3432233],[-84.5377586,39.3433882],[-84.5380084,39.3436886],[-84.5382833,39.344015],[-84.5382973,39.3440316],[-84.5384556,39.3442196],[-84.538469,39.3442355],[-84.5386141,39.3444079],[-84.5387218,39.3445358],[-84.5388739,39.3447164],[-84.5391048,39.3449724],[-84.5391898,39.3450737],[-84.5392617,39.3451594],[-84.539484,39.3454242],[-84.539536,39.3454862],[-84.5395913,39.345552],[-84.5398783,39.3458941],[-84.5399528,39.3459829],[-84.5400216,39.3460648],[-84.540187,39.3462619],[-84.5402497,39.3463366],[-84.5403177,39.34642],[-84.5404484,39.3465804],[-84.5405551,39.3467113],[-84.5406321,39.3468056],[-84.5406579,39.3468373],[-84.5406877,39.3468739],[-84.5408157,39.3470309],[-84.5409138,39.3471512],[-84.5411504,39.3474627],[-84.5412578,39.3476042],[-84.5414758,39.3478913],[-84.54152,39.3479495],[-84.5416051,39.3480912],[-84.5416549,39.3481741],[-84.5417545,39.3483401],[-84.5417761,39.3483761],[-84.5418917,39.3485686],[-84.5419556,39.3486888],[-84.5420601,39.3489158],[-84.542137,39.3490982],[-84.5421962,39.3492563],[-84.542233,39.3493543],[-84.5422807,39.3494818],[-84.542342,39.349688],[-84.5423654,39.3497735],[-84.5424142,39.3500344],[-84.5424249,39.3500914],[-84.542444,39.350259],[-84.5424524,39.3503745],[-84.5424537,39.3504523],[-84.5424609,39.3505999],[-84.5424638,39.3506834],[-84.542466,39.3507466],[-84.5424676,39.3508444],[-84.5424619,39.351011],[-84.542455,39.351134],[-84.5424471,39.3512754],[-84.5424298,39.3514008],[-84.5424143,39.3519424],[-84.5424085,39.3521448],[-84.5424039,39.352308],[-84.5424026,39.3523536],[-84.5423961,39.3525692],[-84.5423907,39.3527503],[-84.5423835,39.3529895],[-84.5423781,39.3531702],[-84.5423578,39.3536573],[-84.5423429,39.3539847],[-84.5423223,39.3543527],[-84.5422638,39.3553999],[-84.542243,39.3557715],[-84.5422351,39.3559141],[-84.5422344,39.3559258],[-84.5422279,39.3560619],[-84.5422018,39.3566115],[-84.5421793,39.356904],[-84.5421466,39.3572346],[-84.5421196,39.3574425],[-84.5421096,39.35752],[-84.5420618,39.3578053],[-84.5419862,39.35823],[-84.5419159,39.3585858],[-84.5418725,39.3588517],[-84.5418588,39.3590054],[-84.5418585,39.3591321],[-84.5418582,39.3592406],[-84.5418769,39.3593923],[-84.5418955,39.359517],[-84.5419389,39.3596801],[-84.5419958,39.3598659],[-84.542078,39.3600764],[-84.5421646,39.3602667],[-84.5423425,39.3606022],[-84.5424921,39.360911],[-84.5425349,39.3609994],[-84.5425757,39.3610836],[-84.5426086,39.3611479],[-84.5427427,39.3614099],[-84.5428604,39.3616364],[-84.5429019,39.3617207],[-84.5429237,39.3617629],[-84.5430566,39.3620198],[-84.5431422,39.3621852],[-84.5431677,39.3622344],[-84.5432396,39.3623794],[-84.5432809,39.3624533],[-84.5432967,39.3624896],[-84.5434643,39.3628079],[-84.54364,39.3631474],[-84.5438106,39.3634792],[-84.5443246,39.3644699],[-84.5447284,39.3652484],[-84.5451664,39.3660968],[-84.5452921,39.3663437],[-84.5453855,39.3665272],[-84.5454839,39.3667205],[-84.5455636,39.3668699],[-84.5456615,39.3670533],[-84.5457672,39.3672514],[-84.5459735,39.3677834],[-84.5460293,39.3679492],[-84.5460851,39.3681151],[-84.5461196,39.3682005],[-84.5462138,39.3684336],[-84.5463426,39.3686858],[-84.5463874,39.368765],[-84.5464566,39.3688873],[-84.5466014,39.3691432],[-84.546703,39.3693228],[-84.5469577,39.3696734],[-84.5470469,39.3698093],[-84.5472033,39.3701076],[-84.5472749,39.3702243],[-84.5474154,39.370537],[-84.5474553,39.370637],[-84.5475918,39.3709791],[-84.547626,39.3710706],[-84.5477244,39.37132],[-84.5478158,39.371558],[-84.5479563,39.3719238],[-84.5480506,39.3721693],[-84.548351,39.3726404],[-84.5485975,39.3729732],[-84.5488746,39.3733238],[-84.549406,39.3744116],[-84.5496561,39.3748641],[-84.5498351,39.3751879],[-84.5500829,39.3756116],[-84.5501342,39.3756993],[-84.550202,39.3758152],[-84.5502143,39.3758364],[-84.5504016,39.3761566],[-84.5505058,39.3763257],[-84.5506513,39.3765616],[-84.5506612,39.3765782],[-84.5508658,39.3769198],[-84.5509481,39.3770647],[-84.551223,39.3775488],[-84.5515421,39.3781107],[-84.5516248,39.3782563],[-84.5516779,39.3783498],[-84.5521416,39.3791049],[-84.5521676,39.3791471],[-84.5522048,39.3792096],[-84.552316,39.3793983],[-84.553174,39.3808588],[-84.5533496,39.3811461],[-84.5534111,39.3812468],[-84.5534786,39.3813641],[-84.5535247,39.3814606],[-84.5535525,39.3815499],[-84.5535742,39.3816483],[-84.5535905,39.3817509],[-84.5535964,39.3818565],[-84.5535952,39.3819535],[-84.5535837,39.382055],[-84.5535534,39.382218]]},"properties":{"agency":"Ohio State Highway Patrol","county":"Butler","location":"Dixie Highway","kind":"street","startsAt":"2026-05-14T23:00:00.000Z","endsAt":"2026-05-15T01:00:00.000Z","confidence":"low","method":"the length of Dixie Highway","jurisdictionMatch":"unchecked","sourceUrl":"https://statepatrol.ohio.gov/wps/wcm/connect/gov/Ohio+Content+English/oshp/media/all-news/patrol-announces-locations-for-statewide-ovi-checkpoint","notes":["the notice names only the road; its mapped length is shown"]}},{"type":"Feature","geometry":{"type":"Point","coordinates":[-81.841111025337,41.253549706931]},"properties":{"agency":"Ohio State Highway Patrol","county":"Medina","location":"817 Pearl Road in Brunswick","kind":"address","startsAt":"2026-05-14T23:00:00.000Z","endsAt":"2026-05-15T02:00:00.000Z","confidence":"high","method":"street address via Census Bureau geocoder","jurisdictionMatch":"city","sourceUrl":"https://statepatrol.ohio.gov/wps/wcm/connect/gov/Ohio+Content+English/oshp/media/all-news/patrol-announces-locations-for-statewide-ovi-checkpoint","notes":["matched as 817 PEARL RD, BRUNSWICK, OH, 44212"]}},{"type":"Feature","geometry":{"type":"Point","coordinates":[-82.45571621228031,40.78767379927644]},"properties":{"agency":"Ohio State Highway Patrol","county":"Richland","location":"U.S. 42 near milepost 15","kind":"milepost","startsAt":"2026-05-14T23:00:00.000Z","endsAt":"2026-05-15T00:30:00.000Z","confidence":"medium","method":"U.S. 42 at Richland county milepost 15","jurisdictionMatch":"unchecked","sourceUrl":"https://statepatrol.ohio.gov/wps/wcm/connect/gov/Ohio+Content+English/oshp/media/all-news/patrol-announces-locations-for-statewide-ovi-checkpoint","notes":["U.S. 42 also signed as: ASHLAND RD, DELAWARE AVE, HEDGES ST, LEXINGTON AVE","U.S. 42 signed there as ASHLAND RD"]}},{"type":"Feature","geometry":{"type":"Point","coordinates":[-81.22317855596178,41.58956916442522]},"properties":{"agency":"Ohio State Highway Patrol","county":"Geauga","location":"state Route 44 near milepost 18","kind":"milepost","startsAt":"2026-05-15T00:00:00.000Z","endsAt":"2026-05-15T02:00:00.000Z","confidence":"medium","method":"state Route 44 at Geauga county milepost 18","jurisdictionMatch":"unchecked","sourceUrl":"https://statepatrol.ohio.gov/wps/wcm/connect/gov/Ohio+Content+English/oshp/media/all-news/patrol-announces-locations-for-statewide-ovi-checkpoint","notes":["state Route 44 also signed as: CENTER ST, RAVENNA RD, SOUTH ST, SR 44","state Route 44 signed there as CENTER ST"]}},{"type":"Feature","geometry":{"type":"LineString","coordinates":[[-81.34742448650877,41.10733855938226],[-81.3474415,41.1074456],[-81.3474632,41.10758],[-81.3474902,41.1077475],[-81.347547,41.1081043],[-81.3475962,41.1084689],[-81.3476155,41.1086718],[-81.3476283,41.1088458],[-81.3476369,41.1090147],[-81.3476412,41.1092249],[-81.3476419,41.1093122],[-81.3476422,41.109342],[-81.3476395,41.1094903],[-81.3476388,41.1095566],[-81.3476396,41.1096522],[-81.3476378,41.1097015],[-81.3476415,41.1097758],[-81.3476492,41.1099303],[-81.3476575,41.1100981],[-81.3476658,41.1102651],[-81.3476745,41.1104254],[-81.3476932,41.1107479],[-81.3476982,41.1109242],[-81.3477017,41.110972],[-81.347704,41.111032],[-81.347731,41.111588],[-81.3477331,41.1116372],[-81.3477478,41.1119808],[-81.3477609,41.1122861],[-81.347771,41.112522],[-81.34781,41.113051],[-81.3478239,41.1131743],[-81.347877,41.113598],[-81.347946,41.114091],[-81.347973,41.114232],[-81.3480697,41.114879],[-81.3480833,41.1149698],[-81.348166,41.115523],[-81.348326,41.116508],[-81.3483838,41.1168662],[-81.348486,41.1175],[-81.3485,41.117606],[-81.348517,41.118121],[-81.3485127,41.1182285],[-81.3485084,41.1183461],[-81.348498,41.118621],[-81.348464,41.118949],[-81.348374,41.119687],[-81.3482918,41.1203995],[-81.34813242124748,41.12175836739196]]},"properties":{"agency":"Ohio State Highway Patrol","county":"Portage","location":"state Route 43 north of Interstate 76","kind":"offset","startsAt":"2026-05-15T00:00:00.000Z","endsAt":"2026-05-15T02:00:00.000Z","confidence":"low","method":"1 mi north along state Route 43 from Interstate 76","jurisdictionMatch":"unchecked","sourceUrl":"https://statepatrol.ohio.gov/wps/wcm/connect/gov/Ohio+Content+English/oshp/media/all-news/patrol-announces-locations-for-statewide-ovi-checkpoint","notes":["state Route 43 also signed as: AURORA RD, CHILLICOTHE SOUTH RD, GOUGLER AVE, HAYMAKER PKWY","offset length of 1 mi is assumed; the notice gives no distance","measured from an interchange, where the roads do not meet"]}},{"type":"Feature","geometry":{"type":"Point","coordinates":[-83.727454725717,41.610293308565]},"properties":{"agency":"Ohio State Highway Patrol","county":"Lucas","location":"7805 Airport Highway","kind":"address","startsAt":"2026-05-15T01:00:00.000Z","endsAt":"2026-05-15T04:00:00.000Z","confidence":"high","method":"street address via Census Bureau geocoder","jurisdictionMatch":"unchecked","sourceUrl":"https://statepatrol.ohio.gov/wps/wcm/connect/gov/Ohio+Content+English/oshp/media/all-news/patrol-announces-locations-for-statewide-ovi-checkpoint","notes":["matched as 7805 AIRPORT HWY, HOLLAND, OH, 43528"]}},{"type":"Feature","geometry":{"type":"LineString","coordinates":[[-83.0900804,40.5800339],[-83.0901317,40.5800618],[-83.0901664,40.5801198],[-83.0901919,40.5802016],[-83.0902155,40.5802883],[-83.0902322,40.5807359],[-83.0902374,40.5808834],[-83.0902437,40.581061],[-83.0904162,40.5810586],[-83.0911641,40.5810484],[-83.0914982,40.5810412],[-83.0918396,40.5810339],[-83.0924789,40.5810202],[-83.0927107,40.5810153],[-83.0929242,40.5810111],[-83.0930921,40.5810078],[-83.0931256,40.5810071],[-83.0936412,40.5809969],[-83.0937461,40.5809948],[-83.0939449,40.5809907],[-83.0944439,40.5809805],[-83.0945448,40.5809784],[-83.094803,40.5809732],[-83.0949224,40.5809707],[-83.095406,40.5809609],[-83.095703,40.5809548],[-83.0958557,40.5809517],[-83.0960662,40.5809475],[-83.0962299,40.5809443],[-83.0963893,40.5809411],[-83.0964833,40.5809392],[-83.0968553,40.5809317],[-83.0972467,40.5809238],[-83.0973727,40.5809212],[-83.097568,40.5809173],[-83.0976484,40.5809156],[-83.0977295,40.580914],[-83.0977723,40.5809131],[-83.097838,40.5809116],[-83.0980069,40.5809079],[-83.0981961,40.5809037],[-83.0982469,40.5809021],[-83.0982883,40.5809008],[-83.0985611,40.5808922],[-83.0985958,40.5808911],[-83.0987056,40.5808876],[-83.098785,40.5808851],[-83.0993399,40.5808676],[-83.0995051,40.5808624],[-83.0995342,40.5808615],[-83.099899,40.58085],[-83.1001102,40.5808433],[-83.1003428,40.580836],[-83.1003905,40.5808344],[-83.1005538,40.5808293],[-83.1009065,40.5808182],[-83.1009699,40.5808162],[-83.1014346,40.5808015],[-83.1015181,40.5807979],[-83.1016854,40.5807914],[-83.1018233,40.5807872],[-83.101896,40.5807845],[-83.1022222,40.5807724],[-83.1023779,40.5807667],[-83.1024984,40.5807633],[-83.102662,40.5807586],[-83.1029099,40.5807515],[-83.1031162,40.5807456],[-83.103303,40.5807398],[-83.1035147,40.5807333],[-83.1036246,40.5807299],[-83.1049353,40.5806894],[-83.1055562,40.5806702],[-83.1057561,40.580664],[-83.106251,40.5806497],[-83.1064464,40.5806441],[-83.1066626,40.5806365],[-83.1071041,40.580621],[-83.1073425,40.580613],[-83.1080049,40.5805906],[-83.1080307,40.5805899],[-83.1085423,40.580584],[-83.1086217,40.5805847],[-83.1087452,40.580603],[-83.1089142,40.5806458],[-83.1090966,40.5807028],[-83.1092632,40.5807655],[-83.1094124,40.5808216],[-83.1099227,40.5810349],[-83.1106828,40.5813582],[-83.1107947,40.5814058],[-83.1109308,40.5814679],[-83.1112275,40.5816071],[-83.1115067,40.5817382],[-83.1118427,40.5818959],[-83.1120393,40.5819904],[-83.1121611,40.5820465],[-83.1125805,40.5822411],[-83.1133677,40.5826309],[-83.1135001,40.5826964],[-83.1141141,40.5829849],[-83.1141985,40.5830241],[-83.1148848,40.5833431],[-83.1156992,40.5837327],[-83.1161722,40.583959],[-83.1163829,40.5840589],[-83.1169045,40.5842982],[-83.1170384,40.5843539],[-83.1174512,40.5845254],[-83.1175759,40.5845809],[-83.1177037,40.5846378],[-83.1181154,40.5848004],[-83.1185795,40.5849857],[-83.1186675,40.5850186],[-83.1188173,40.5850794],[-83.1192401,40.5852486],[-83.1198755,40.5855106],[-83.1199418,40.5855379],[-83.1200195,40.5855688],[-83.1205185,40.5857754],[-83.1205798,40.5857998],[-83.1208021,40.5858881],[-83.1210354,40.5859808],[-83.121422,40.5861374],[-83.1228451,40.5867317],[-83.1232026,40.5868767],[-83.1233545,40.586937],[-83.123731,40.5870921],[-83.1239163,40.5871685],[-83.1242424,40.5873029],[-83.124435,40.587421]]},"properties":{"agency":"Ohio State Highway Patrol","county":"Marion","location":"Mount Vernon Avenue in Marion","kind":"street","startsAt":"2026-05-15T01:00:00.000Z","endsAt":"2026-05-15T02:30:00.000Z","confidence":"low","method":"the length of Mount Vernon Avenue","jurisdictionMatch":"city","sourceUrl":"https://statepatrol.ohio.gov/wps/wcm/connect/gov/Ohio+Content+English/oshp/media/all-news/patrol-announces-locations-for-statewide-ovi-checkpoint","notes":["the notice names only the road; its mapped length is shown"]}},{"type":"Feature","geometry":{"type":"Point","coordinates":[-81.48363963244432,40.50280004212093]},"properties":{"agency":"Ohio State Highway Patrol","county":"Tuscarawas","location":"state Route 39 near milepost 12","kind":"milepost","startsAt":"2026-05-15T02:00:00.000Z","endsAt":"2026-05-15T04:00:00.000Z","confidence":"medium","method":"state Route 39 at Tuscarawas county milepost 12","jurisdictionMatch":"unchecked","sourceUrl":"https://statepatrol.ohio.gov/wps/wcm/connect/gov/Ohio+Content+English/oshp/media/all-news/patrol-announces-locations-for-statewide-ovi-checkpoint","notes":["state Route 39 also signed as: BEAVER AVE NE, COMMERCIAL PKWY, DOVER RD NE, DOVER RD NW","state Route 39 signed there as SR 39 NW"]}},{"type":"Feature","geometry":{"type":"Point","coordinates":[-84.2949276,39.5624435]},"properties":{"agency":"Ohio State Highway Patrol","county":"Warren","location":"state Route 73 near Meadowview Court","kind":"vicinity","startsAt":"2026-05-15T02:00:00.000Z","endsAt":"2026-05-15T04:00:00.000Z","confidence":"low","method":"intersection of state Route 73 and Meadowview Court","jurisdictionMatch":"unchecked","sourceUrl":"https://statepatrol.ohio.gov/wps/wcm/connect/gov/Ohio+Content+English/oshp/media/all-news/patrol-announces-locations-for-statewide-ovi-checkpoint","notes":["state Route 73 also signed as: SR 73, E 2ND ST, E CENTRAL AVE, E SR 73"]}},{"type":"Feature","geometry":{"type":"Point","coordinates":[-84.07340661835406,40.75602700161411]},"properties":{"agency":"Ohio State Highway Patrol","county":"Allen","location":"state Route 81 near milepost 19","kind":"milepost","startsAt":"2026-05-15T22:00:00.000Z","endsAt":"2026-05-16T00:00:00.000Z","confidence":"medium","method":"state Route 81 at Allen county milepost 19","jurisdictionMatch":"unchecked","sourceUrl":"https://statepatrol.ohio.gov/wps/wcm/connect/gov/Ohio+Content+English/oshp/media/all-news/patrol-announces-counties-for-statewide-ovi-checkpoint-051526","notes":["state Route 81 also signed as: ADA RD, ALLENTOWN RD, FINDLAY RD, E NORTH ST","state Route 81 signed there as FINDLAY RD"]}},{"type":"Feature","geometry":{"type":"Point","coordinates":[-83.7246404,40.1063265]},"properties":{"agency":"Ohio State Highway Patrol","county":"Champaign","location":"U.S. Highway 36 near Community Drive","kind":"vicinity","startsAt":"2026-05-15T22:00:00.000Z","endsAt":"2026-05-16T00:00:00.000Z","confidence":"low","method":"intersection of U.S. Highway 36 and Community Drive","jurisdictionMatch":"unchecked","sourceUrl":"https://statepatrol.ohio.gov/wps/wcm/connect/gov/Ohio+Content+English/oshp/media/all-news/patrol-announces-counties-for-statewide-ovi-checkpoint-051526","notes":["U.S. Highway 36 also signed as: MAIN ST, MIAMI ST, SCIOTO ST, US 36"]}},{"type":"Feature","geometry":{"type":"LineString","coordinates":[[-83.8245279,39.7924426],[-83.8245587,39.7926021],[-83.8245659,39.7926977],[-83.8246113,39.7933207],[-83.8246384,39.793609],[-83.8246498,39.7937777],[-83.8246734,39.7941428],[-83.8246761,39.7941627],[-83.8246992,39.7943419],[-83.8247059,39.7944305],[-83.8247064,39.7945482],[-83.8247071,39.7947205],[-83.824697,39.7950598],[-83.824693,39.7951155],[-83.824647,39.79576],[-83.824597,39.796365],[-83.8245909,39.7964328],[-83.824524,39.797068],[-83.824514,39.797321],[-83.8244445,39.7980808],[-83.824437,39.798163],[-83.8243848,39.7987424],[-83.82434,39.79924],[-83.824314,39.79946],[-83.8242925,39.7995853],[-83.82428,39.799658],[-83.824237,39.799831],[-83.82417,39.80005],[-83.824104,39.8002318],[-83.824081,39.800287]]},"properties":{"agency":"Ohio State Highway Patrol","county":"Greene","location":"Main Street","kind":"street","startsAt":"2026-05-15T22:00:00.000Z","endsAt":"2026-05-16T00:00:00.000Z","confidence":"low","method":"the length of Main Street","jurisdictionMatch":"unchecked","sourceUrl":"https://statepatrol.ohio.gov/wps/wcm/connect/gov/Ohio+Content+English/oshp/media/all-news/patrol-announces-counties-for-statewide-ovi-checkpoint-051526","notes":["the notice names only the road; its mapped length is shown"]}},{"type":"Feature","geometry":{"type":"Point","coordinates":[-81.61697269962109,40.01466328803099]},"properties":{"agency":"Ohio State Highway Patrol","county":"Guernsey","location":"U.S. 22 near milepost 6","kind":"milepost","startsAt":"2026-05-15T22:00:00.000Z","endsAt":"2026-05-16T00:00:00.000Z","confidence":"medium","method":"U.S. 22 at Guernsey county milepost 6","jurisdictionMatch":"unchecked","sourceUrl":"https://statepatrol.ohio.gov/wps/wcm/connect/gov/Ohio+Content+English/oshp/media/all-news/patrol-announces-counties-for-statewide-ovi-checkpoint-051526","notes":["U.S. 22 also signed as: COSHOCTON AVE, DEWEY AVE, GLENN HWY, HIGHLAND AVE"]}},{"type":"Feature","geometry":{"type":"Point","coordinates":[-82.660553,38.5053944]},"properties":{"agency":"Ohio State Highway Patrol","county":"Lawrence","location":"South 3rd Street at Commerce Drive","kind":"intersection","startsAt":"2026-05-15T22:00:00.000Z","endsAt":"2026-05-16T00:00:00.000Z","confidence":"high","method":"intersection of South 3rd Street and Commerce Drive","jurisdictionMatch":"unchecked","sourceUrl":"https://statepatrol.ohio.gov/wps/wcm/connect/gov/Ohio+Content+English/oshp/media/all-news/patrol-announces-counties-for-statewide-ovi-checkpoint-051526","notes":[]}},{"type":"Feature","geometry":{"type":"Point","coordinates":[-83.0271248832559,39.33719101681828]},"properties":{"agency":"Ohio State Highway Patrol","county":"Ross","location":"U.S. 50 near milepost 21","kind":"milepost","startsAt":"2026-05-15T22:00:00.000Z","endsAt":"2026-05-16T00:00:00.000Z","confidence":"medium","method":"U.S. 50 at Ross county milepost 21","jurisdictionMatch":"unchecked","sourceUrl":"https://statepatrol.ohio.gov/wps/wcm/connect/gov/Ohio+Content+English/oshp/media/all-news/patrol-announces-counties-for-statewide-ovi-checkpoint-051526","notes":["U.S. 50 also signed as: EASTERN AVE, US 50, WESTERN AVE, E MAIN ST","U.S. 50 signed there as WESTERN AVE"]}},{"type":"Feature","geometry":{"type":"LineString","coordinates":[[-83.122944,41.348509],[-83.122934,41.348594],[-83.121878,41.350015],[-83.121583,41.3504],[-83.121448,41.350589],[-83.121043,41.351172],[-83.120973,41.351285],[-83.120712,41.352015],[-83.120222,41.353429],[-83.120048,41.353937],[-83.119905,41.354349],[-83.1196,41.35523],[-83.119191,41.356393],[-83.119049,41.356794],[-83.118879,41.357277],[-83.118724,41.357715],[-83.118698,41.35779],[-83.1185963,41.3580341],[-83.118418,41.358583],[-83.118095,41.359499],[-83.117778,41.360412],[-83.117623,41.360855],[-83.117487,41.361335],[-83.1172378,41.36207],[-83.1171568,41.3623329],[-83.1171149,41.3625213],[-83.1170742,41.3627603],[-83.1170586,41.3630176],[-83.1170431,41.3634359],[-83.1170514,41.363786],[-83.1170524,41.3648187]]},"properties":{"agency":"Ohio State Highway Patrol","county":"Sandusky","location":"Rawson Avenue","kind":"street","startsAt":"2026-05-15T22:00:00.000Z","endsAt":"2026-05-15T23:30:00.000Z","confidence":"low","method":"the length of Rawson Avenue","jurisdictionMatch":"unchecked","sourceUrl":"https://statepatrol.ohio.gov/wps/wcm/connect/gov/Ohio+Content+English/oshp/media/all-news/patrol-announces-counties-for-statewide-ovi-checkpoint-051526","notes":["the notice names only the road; its mapped length is shown"]}},{"type":"Feature","geometry":{"type":"LineString","coordinates":[[-84.3751651,39.2505613],[-84.3749362,39.2505182],[-84.374566,39.2504467],[-84.3740348,39.2503441],[-84.3739205,39.250322],[-84.3732424,39.250209],[-84.3727901,39.2501477],[-84.3720357,39.2500455],[-84.3718692,39.2500229],[-84.3708613,39.2499024],[-84.3705196,39.2498752],[-84.370202,39.2498646],[-84.3698006,39.2498634],[-84.3694659,39.2498966],[-84.3690968,39.2499431],[-84.3686677,39.2500029],[-84.3682986,39.2500295],[-84.3681899,39.2500337],[-84.3679553,39.2500428],[-84.3676635,39.2500362],[-84.3674231,39.2500096],[-84.367337,39.2500004],[-84.3671527,39.2499809],[-84.3669768,39.2499365],[-84.3666936,39.24987],[-84.3661957,39.2497371],[-84.3654404,39.249531],[-84.3649169,39.2494047],[-84.364543,39.2493312],[-84.3643761,39.2492984],[-84.3642879,39.2492871],[-84.3627711,39.2490923],[-84.3626775,39.2490823],[-84.3623934,39.2490525],[-84.3621875,39.2490259],[-84.361415,39.2488797],[-84.3599109,39.2486907],[-84.3591157,39.2485904],[-84.358378,39.248498],[-84.357508,39.248391],[-84.3573129,39.2483877],[-84.3566483,39.2484175],[-84.355145,39.248492],[-84.3546887,39.2485109],[-84.354518,39.248518],[-84.3530045,39.2485823],[-84.3522589,39.2486197],[-84.3514703,39.2486718],[-84.3513711,39.2486623],[-84.3511485,39.2486768],[-84.3509651,39.2486732]]},"properties":{"agency":"Ohio State Highway Patrol","county":"Hamilton","location":"Pfeiffer Road","kind":"street","startsAt":"2026-05-15T23:00:00.000Z","endsAt":"2026-05-16T01:00:00.000Z","confidence":"low","method":"the length of Pfeiffer Road","jurisdictionMatch":"unchecked","sourceUrl":"https://statepatrol.ohio.gov/wps/wcm/connect/gov/Ohio+Content+English/oshp/media/all-news/patrol-announces-counties-for-statewide-ovi-checkpoint-051526","notes":["the notice names only the road; its mapped length is shown"]}},{"type":"Feature","geometry":{"type":"Point","coordinates":[-82.125346113542,41.381820262232]},"properties":{"agency":"Ohio State Highway Patrol","county":"Lorain","location":"1101 Lake Avenue","kind":"address","startsAt":"2026-05-15T23:00:00.000Z","endsAt":"2026-05-16T02:00:00.000Z","confidence":"high","method":"street address via Census Bureau geocoder","jurisdictionMatch":"unchecked","sourceUrl":"https://statepatrol.ohio.gov/wps/wcm/connect/gov/Ohio+Content+English/oshp/media/all-news/patrol-announces-counties-for-statewide-ovi-checkpoint-051526","notes":["matched as 1101 LAKE AVE, ELYRIA, OH, 44035"]}},{"type":"Feature","geometry":{"type":"Point","coordinates":[-81.352852758778,40.808654728623]},"properties":{"agency":"Ohio State Highway Patrol","county":"Stark","location":"1701 Mahoning Road NE","kind":"address","startsAt":"2026-05-15T23:00:00.000Z","endsAt":"2026-05-16T03:00:00.000Z","confidence":"high","method":"street address via Census Bureau geocoder","jurisdictionMatch":"unchecked","sourceUrl":"https://statepatrol.ohio.gov/wps/wcm/connect/gov/Ohio+Content+English/oshp/media/all-news/patrol-announces-counties-for-statewide-ovi-checkpoint-051526","notes":["matched as 1701 MAHONING RD NE, CANTON, OH, 44705"]}},{"type":"Feature","geometry":{"type":"Point","coordinates":[-83.0483673,39.9186272]},"properties":{"agency":"Franklin County Sheriff's Office","county":"Franklin","location":"Frank Rd / Gantz Rd","kind":"intersection","startsAt":"2026-05-16T00:00:00.000Z","endsAt":"2026-05-16T04:30:00.000Z","confidence":"high","method":"intersection of Frank Rd and Gantz Rd","jurisdictionMatch":"unchecked","sourceUrl":"https://sheriff.franklincountyohio.gov/About-Us/Public-Affairs-Media-Relations/2026/05-15-Sobriety-Checkpoint-in-Franklin-Township","notes":[]}},{"type":"Feature","geometry":{"type":"LineString","coordinates":[[-82.9510407,39.5790728],[-82.9510478,39.5792562],[-82.9510576,39.5793478],[-82.9510636,39.5795409],[-82.951079,39.5796564],[-82.9511003,39.5797746],[-82.9511593,39.5799145],[-82.9513115,39.580159],[-82.9513903,39.5802823],[-82.9514061,39.580307],[-82.9515071,39.5804649],[-82.9515734,39.5806049],[-82.9516233,39.5807206],[-82.9516545,39.5809129],[-82.9516542,39.5809257],[-82.9516499,39.5810938],[-82.9516379,39.5812678],[-82.9516369,39.5812816],[-82.9516204,39.5815207],[-82.9515955,39.5819315],[-82.9515801,39.5821843],[-82.9515598,39.5825286],[-82.9515412,39.5828437],[-82.9515366,39.5830298],[-82.9515334,39.5831864],[-82.9515217,39.583361],[-82.9514956,39.5837822],[-82.951493,39.5839032],[-82.951497,39.5840065],[-82.9515104,39.5840975],[-82.9515332,39.5841977],[-82.9515726,39.5843177],[-82.9516083,39.5844044],[-82.9516566,39.5844985],[-82.9517156,39.5845936],[-82.9517665,39.584667],[-82.9517995,39.5847127],[-82.9518496,39.5847733],[-82.9519108,39.58484],[-82.9520641,39.5849862],[-82.9522197,39.5851318],[-82.9522748,39.585191],[-82.9523577,39.5853064],[-82.9523997,39.5853546],[-82.9524631,39.5854562],[-82.9524706,39.585468],[-82.9525068,39.5855517],[-82.952534,39.5856193],[-82.9525565,39.5856881],[-82.9525707,39.5857385],[-82.9525819,39.5857925],[-82.9525916,39.585836],[-82.9525967,39.5858991],[-82.9526004,39.5859564],[-82.952598,39.5860137],[-82.9525914,39.5860871],[-82.9525873,39.5861326],[-82.9525739,39.5862049],[-82.9525542,39.5862827],[-82.9524611,39.586539],[-82.9523596,39.5868265],[-82.9522786,39.5870546],[-82.9522643,39.5870952],[-82.9521924,39.5872941],[-82.9520398,39.5877278],[-82.951978,39.5878976],[-82.9517942,39.5883676],[-82.9516861,39.5886213],[-82.9516378,39.5887339],[-82.951595,39.5888293],[-82.951564,39.5888983],[-82.9514539,39.5891364],[-82.9513596,39.58934],[-82.9512697,39.5895337],[-82.9510804,39.5899417],[-82.9510699,39.5899642],[-82.9508338,39.59047],[-82.9508042,39.5905351],[-82.9507551,39.5906406],[-82.9506276,39.5909149],[-82.9503881,39.59143],[-82.9503353,39.5915435],[-82.9502847,39.5916515],[-82.9500986,39.5920483],[-82.9498997,39.5924608],[-82.9498712,39.5925199],[-82.9495735,39.5931078],[-82.9493249,39.5936],[-82.9492371,39.5937737],[-82.9492355,39.593777],[-82.9492117,39.5938236],[-82.9491892,39.5938682],[-82.9491318,39.593982],[-82.949114,39.594017],[-82.9490456,39.5941468],[-82.9488795,39.5944757],[-82.948712,39.594807],[-82.9485963,39.595036],[-82.9485513,39.595125],[-82.9484969,39.595232],[-82.9482048,39.5958068],[-82.9479082,39.5963904],[-82.9478692,39.5964671],[-82.9478322,39.5965392],[-82.9476976,39.5968018],[-82.9475988,39.5969943],[-82.9472409,39.5976922],[-82.9471947,39.5977823],[-82.9471557,39.5978582],[-82.9466748,39.5987937],[-82.9464196,39.5992912],[-82.946218,39.5997042],[-82.9461687,39.5997984],[-82.9461207,39.599891],[-82.9459011,39.600314],[-82.9456714,39.6007796],[-82.9456341,39.6008453],[-82.9456037,39.6009055],[-82.945379,39.6013577],[-82.9451484,39.6017926],[-82.9450995,39.601887]]},"properties":{"agency":"Ohio State Highway Patrol","county":"Pickaway","location":"South Court Street","kind":"street","startsAt":"2026-05-16T00:00:00.000Z","endsAt":"2026-05-16T02:00:00.000Z","confidence":"low","method":"the length of South Court Street","jurisdictionMatch":"unchecked","sourceUrl":"https://statepatrol.ohio.gov/wps/wcm/connect/gov/Ohio+Content+English/oshp/media/all-news/patrol-announces-counties-for-statewide-ovi-checkpoint-051526","notes":["the notice names only the road; its mapped length is shown"]}},{"type":"Feature","geometry":{"type":"LineString","coordinates":[[-83.041373909311,40.827033142703414],[-83.0430792,40.8275569],[-83.0434838,40.8276876],[-83.0447431,40.8280902],[-83.0469165,40.8288113],[-83.048856,40.829454],[-83.0509264,40.8301403],[-83.0539399,40.8311476],[-83.0545548,40.8313571],[-83.0560269,40.8318414],[-83.0587884,40.832779],[-83.05890638973445,40.83281791779852]]},"properties":{"agency":"Ohio State Highway Patrol","county":"Crawford","location":"County Road 330, west of U.S. 30","kind":"offset","startsAt":"2026-05-16T00:30:00.000Z","endsAt":"2026-05-16T02:00:00.000Z","confidence":"low","method":"1 mi west along County Road 330 from U.S. 30","jurisdictionMatch":"unchecked","sourceUrl":"https://statepatrol.ohio.gov/wps/wcm/connect/gov/Ohio+Content+English/oshp/media/all-news/patrol-announces-counties-for-statewide-ovi-checkpoint-051526","notes":["County Road 330 also signed as: LINCOLN HWY, WASHINGTON SQ, E MANSFIELD ST, W MAIN ST","offset length of 1 mi is assumed; the notice gives no distance","measured from an interchange, where the roads do not meet"]}},{"type":"Feature","geometry":{"type":"Point","coordinates":[-83.0483673,39.9186272]},"properties":{"agency":"Ohio State Highway Patrol","county":"Franklin","location":"Frank Road at Gantz Road","kind":"intersection","startsAt":"2026-05-16T00:30:00.000Z","endsAt":"2026-05-16T04:00:00.000Z","confidence":"high","method":"intersection of Frank Road and Gantz Road","jurisdictionMatch":"unchecked","sourceUrl":"https://statepatrol.ohio.gov/wps/wcm/connect/gov/Ohio+Content+English/oshp/media/all-news/patrol-announces-counties-for-statewide-ovi-checkpoint-051526","notes":[]}},{"type":"Feature","geometry":{"type":"LineString","coordinates":[[-84.1429062,39.7123049],[-84.1428367,39.7125656],[-84.142835,39.7126755],[-84.1428179,39.7129807],[-84.1428448,39.7130225],[-84.1428289,39.713176],[-84.142826,39.7132117],[-84.1428115,39.7132668],[-84.1427924,39.7133397],[-84.1427837,39.713459],[-84.1427503,39.7137073],[-84.142717,39.7140728],[-84.1427033,39.7142239],[-84.1426948,39.714321],[-84.142683,39.7144565],[-84.1426718,39.7145846],[-84.1426628,39.7146876],[-84.1426627,39.7147148],[-84.1426356,39.7149898],[-84.142627,39.715086],[-84.142567,39.7154891],[-84.1425545,39.7156659],[-84.1425745,39.7158986],[-84.142551,39.7161202],[-84.1425181,39.7162263],[-84.1424872,39.71634],[-84.1424057,39.7174871],[-84.1423,39.718563],[-84.142221,39.719387],[-84.142153,39.7200999],[-84.1421388,39.7202488],[-84.142126,39.720383],[-84.1421139,39.7205085],[-84.1420908,39.7207489],[-84.14207,39.720965],[-84.1420484,39.7211937],[-84.142026,39.721432],[-84.1420214,39.7214771],[-84.141913,39.722543],[-84.141845,39.723154],[-84.1418328,39.7232625],[-84.1418128,39.7234778],[-84.141796,39.723647],[-84.1417589,39.724069],[-84.141709,39.724676],[-84.1416809,39.725075],[-84.14168,39.7250875],[-84.141664,39.725314],[-84.1416406,39.7256291],[-84.141637,39.725678],[-84.141595,39.7261541],[-84.141593,39.726177],[-84.14151,39.72699],[-84.141459,39.727528],[-84.1414066,39.7279463],[-84.1414024,39.7279794],[-84.1413874,39.7280993],[-84.141355,39.728358],[-84.141328,39.728567],[-84.1413219,39.7286167],[-84.1413082,39.7287283],[-84.141286,39.7289089],[-84.1412783,39.7289596],[-84.1412713,39.729006],[-84.1412265,39.7293745],[-84.141184,39.729744],[-84.1411769,39.7298143],[-84.1411308,39.7302746],[-84.1411155,39.7304266],[-84.141105,39.730531],[-84.1410962,39.730623],[-84.1410859,39.7307306],[-84.1410555,39.7310459],[-84.1410447,39.7311954],[-84.141018,39.731631],[-84.141002,39.731904],[-84.1409272,39.732788],[-84.14089,39.733227],[-84.1408818,39.733317],[-84.1408518,39.7336452],[-84.14083,39.733884],[-84.1408119,39.7340748],[-84.1407603,39.7346197],[-84.1407365,39.7348708],[-84.140709,39.735161],[-84.1407042,39.735208],[-84.1406459,39.7357774],[-84.140639,39.735845],[-84.140633,39.7359176],[-84.14059,39.736438],[-84.140515,39.737248],[-84.1404955,39.7374596],[-84.1404797,39.7376313],[-84.1404508,39.7379458],[-84.140446,39.737998],[-84.1404212,39.7382813],[-84.140413,39.738374],[-84.1404041,39.73849],[-84.140389,39.738688],[-84.1403696,39.7389039],[-84.1403448,39.7391795],[-84.140328,39.739367],[-84.140255,39.740113],[-84.140186,39.740852],[-84.1401091,39.7417294],[-84.1401002,39.7418384],[-84.1400943,39.7418853],[-84.140006,39.742715],[-84.1399708,39.7430633],[-84.1399577,39.7432103],[-84.139919,39.743642],[-84.1398779,39.7440432],[-84.139811,39.744696],[-84.13974,39.7454507],[-84.1397122,39.7457371],[-84.13966,39.746217],[-84.1396306,39.7464402],[-84.1395617,39.7470508],[-84.139544,39.747218],[-84.1395251,39.7473971],[-84.1395163,39.7475568],[-84.1395061,39.7476561],[-84.1394839,39.7478731],[-84.1394723,39.7479862],[-84.139462,39.748087],[-84.1394535,39.7481849],[-84.1394436,39.7482986],[-84.139404,39.748743],[-84.139398,39.74886],[-84.139385,39.748977],[-84.139364,39.749153],[-84.13936,39.749206],[-84.139344,39.749399],[-84.13932,39.749698],[-84.139292,39.749994],[-84.1392563,39.7503494],[-84.139251,39.750432],[-84.1392381,39.7505521],[-84.139167,39.751211],[-84.139139,39.75149],[-84.1391217,39.7516851],[-84.1391008,39.7518683],[-84.1391022,39.7519086],[-84.1390938,39.7520182],[-84.1390707,39.7522376],[-84.13905,39.7523601],[-84.139006,39.752907],[-84.1389639,39.7532229],[-84.138956,39.753282],[-84.1389498,39.7533462],[-84.138908,39.753779],[-84.1388914,39.75402],[-84.138888,39.754069],[-84.1388836,39.7541342],[-84.1388787,39.7542074],[-84.138867,39.754383],[-84.13881,39.7549358],[-84.1387679,39.7553656],[-84.138724,39.755809],[-84.1386534,39.75668],[-84.1386449,39.7568039],[-84.1386204,39.7571876],[-84.1385934,39.7574958],[-84.138587,39.757569],[-84.1385785,39.7576443],[-84.1385662,39.7577527],[-84.138534,39.758021],[-84.1385234,39.7580832],[-84.138467,39.758415],[-84.138452,39.758532],[-84.138442,39.758668],[-84.138381,39.759262],[-84.138369,39.759427],[-84.138281,39.760327],[-84.138162,39.761478],[-84.1381543,39.7615559],[-84.138112,39.761984],[-84.138091,39.762175],[-84.138039,39.762555],[-84.13801,39.762884],[-84.137984,39.763161],[-84.137927,39.763661],[-84.137916,39.7638]]},"properties":{"agency":"Ohio State Highway Patrol","county":"Montgomery","location":"South Smithville Road","kind":"street","startsAt":"2026-05-16T00:30:00.000Z","endsAt":"2026-05-16T02:30:00.000Z","confidence":"low","method":"the length of South Smithville Road","jurisdictionMatch":"unchecked","sourceUrl":"https://statepatrol.ohio.gov/wps/wcm/connect/gov/Ohio+Content+English/oshp/media/all-news/patrol-announces-counties-for-statewide-ovi-checkpoint-051526","notes":["the notice names only the road; its mapped length is shown"]}},{"type":"Feature","geometry":{"type":"Point","coordinates":[-83.100548,40.307770500000004]},"properties":{"agency":"Ohio State Highway Patrol","county":"Delaware","location":"state Route 37 West and Lexington Blvd.","kind":"intersection","startsAt":"2026-05-16T01:00:00.000Z","endsAt":"2026-05-16T03:00:00.000Z","confidence":"high","method":"intersection of state Route 37 West and Lexington Blvd","jurisdictionMatch":"unchecked","sourceUrl":"https://statepatrol.ohio.gov/wps/wcm/connect/gov/Ohio+Content+English/oshp/media/all-news/patrol-announces-counties-for-statewide-ovi-checkpoint-051526","notes":["state Route 37 West also signed as: SR 37 E, SR 37 W, E CENTRAL AVE, E CHERRY ST"]}},{"type":"Feature","geometry":{"type":"Point","coordinates":[-83.43364145032622,39.900627952445774]},"properties":{"agency":"Ohio State Highway Patrol","county":"Madison","location":"U.S. 42 near milepost 8","kind":"milepost","startsAt":"2026-05-16T01:00:00.000Z","endsAt":"2026-05-16T03:00:00.000Z","confidence":"medium","method":"U.S. 42 at Madison county milepost 8","jurisdictionMatch":"unchecked","sourceUrl":"https://statepatrol.ohio.gov/wps/wcm/connect/gov/Ohio+Content+English/oshp/media/all-news/patrol-announces-counties-for-statewide-ovi-checkpoint-051526","notes":["U.S. 42 also signed as: ELM ST, HIGH ST, JEFFERSON ST, LAFAYETTE RD","U.S. 42 signed there as LAFAYETTE RD"]}},{"type":"Feature","geometry":{"type":"LineString","coordinates":[[-80.782913,41.265537],[-80.782982,41.265269],[-80.7830285,41.2650654],[-80.7830337,41.2650427],[-80.7830761,41.2648572],[-80.783097,41.264762],[-80.783117,41.264659],[-80.7831903,41.2642891],[-80.783241,41.264033],[-80.7832522,41.2639817],[-80.7833469,41.2635483],[-80.783406,41.263278],[-80.783567,41.262552],[-80.7836029,41.2623929],[-80.7836345,41.2622531],[-80.783713,41.261905],[-80.783742,41.261793],[-80.783751,41.2617584],[-80.783779,41.26165],[-80.7838334,41.2614444],[-80.783842,41.261412],[-80.783903,41.261226],[-80.784026,41.260908],[-80.7841884,41.2605223],[-80.784234,41.260414],[-80.7843651,41.260116],[-80.7845177,41.2597691],[-80.7847583,41.2592223],[-80.7847978,41.2591324],[-80.7848511,41.2590113],[-80.785025,41.258616],[-80.7850629,41.2585381],[-80.7851371,41.2583858],[-80.7852421,41.2581704],[-80.785289,41.258074],[-80.785351,41.2579643],[-80.785365,41.257939],[-80.7854,41.257877],[-80.785483,41.257744],[-80.785611,41.257562],[-80.7856927,41.2574587],[-80.78574,41.257399],[-80.785814,41.257313],[-80.785877,41.257241],[-80.78603,41.257084],[-80.786193,41.256933],[-80.786366,41.256788],[-80.786548,41.256649],[-80.786738,41.256518],[-80.786855,41.256445],[-80.786906,41.256413],[-80.787045,41.256332],[-80.787141,41.256277],[-80.7875366,41.2560667],[-80.7877224,41.2559679],[-80.787773,41.255941],[-80.7878627,41.2558953],[-80.788116,41.25577],[-80.7885623,41.2555432],[-80.7887454,41.2554502],[-80.7888513,41.2553964],[-80.7890355,41.2553028],[-80.790149,41.254737],[-80.790498,41.254559],[-80.7907137,41.2544496],[-80.7910641,41.2542717],[-80.7911366,41.2542349],[-80.791332,41.2541358],[-80.791668,41.2539653],[-80.7916976,41.2539503],[-80.791907,41.253844],[-80.79206488705314,41.253767580053626]]},"properties":{"agency":"Ohio State Highway Patrol","county":"Trumbull","location":"Elm Road south of North River Road","kind":"offset","startsAt":"2026-05-16T01:00:00.000Z","endsAt":"2026-05-16T04:00:00.000Z","confidence":"medium","method":"1 mi south along Elm Road from North River Road","jurisdictionMatch":"unchecked","sourceUrl":"https://statepatrol.ohio.gov/wps/wcm/connect/gov/Ohio+Content+English/oshp/media/all-news/patrol-announces-counties-for-statewide-ovi-checkpoint-051526","notes":["offset length of 1 mi is assumed; the notice gives no distance"]}},{"type":"Feature","geometry":{"type":"LineString","coordinates":[[-83.6446954,41.0440688],[-83.644489,41.044086],[-83.644386,41.0441],[-83.6442535,41.0441402],[-83.644178,41.044163],[-83.644066,41.044201],[-83.6436375,41.044394],[-83.6434385,41.0444837],[-83.6432352,41.0445752],[-83.6430899,41.0446406],[-83.6430012,41.0446806],[-83.6427375,41.0447994],[-83.6423055,41.044994],[-83.641999,41.045132],[-83.6414872,41.0453547],[-83.641329,41.045419],[-83.6410833,41.0455186],[-83.6407804,41.0456408],[-83.640394,41.045797],[-83.6403382,41.0458204],[-83.640125,41.04591],[-83.639649,41.046097],[-83.6395058,41.0461503],[-83.638832,41.046401],[-83.6387642,41.0464264],[-83.638685,41.046456],[-83.6380577,41.0466867],[-83.637834,41.046769],[-83.637507,41.04688],[-83.637406,41.04691],[-83.637288,41.046946],[-83.637121,41.046997],[-83.63672,41.047109],[-83.636059,41.047294],[-83.6351673,41.0475426],[-83.634348,41.047771],[-83.6337685,41.0479353],[-83.6334743,41.0480187],[-83.633339,41.048057],[-83.6327217,41.0482388],[-83.632626,41.048267],[-83.6323636,41.04834],[-83.6322179,41.0483805],[-83.6317046,41.0485234],[-83.631573,41.04856],[-83.631444,41.048596],[-83.6312914,41.0486353],[-83.6311816,41.0486636],[-83.6309373,41.0487266],[-83.630804,41.048761],[-83.630484,41.048853],[-83.6300532,41.0489707],[-83.6298389,41.0490293],[-83.629719,41.049062],[-83.6296086,41.0490943],[-83.629497,41.049127],[-83.629459,41.0491376],[-83.6293987,41.0491544],[-83.629195,41.0492111],[-83.6289324,41.0492843],[-83.6288084,41.0493188],[-83.628602,41.0493763],[-83.62822,41.0494827],[-83.6277877,41.0496031],[-83.6275591,41.0496668],[-83.6273121,41.0497356],[-83.6269899,41.0498253],[-83.6269411,41.0498389],[-83.6268567,41.0498624],[-83.6268196,41.0498727],[-83.6265719,41.0499417],[-83.6263004,41.0500173],[-83.6260536,41.0500861],[-83.625959,41.0501124],[-83.6257576,41.0501685],[-83.6256604,41.0501955],[-83.6256327,41.0502033],[-83.625192,41.050326],[-83.623231,41.05087],[-83.622811,41.050995],[-83.6220728,41.0511985],[-83.6218284,41.0512659],[-83.6212942,41.0514132],[-83.6210538,41.0514824],[-83.62038,41.051667],[-83.61978,41.051834],[-83.619694,41.0518579],[-83.6192539,41.0519804],[-83.6190143,41.0520471],[-83.618785,41.052111],[-83.61846,41.0522015],[-83.6181108,41.0523025],[-83.6179873,41.0523332],[-83.61774,41.052402],[-83.6174259,41.0524754],[-83.617372,41.052488],[-83.6172821,41.0525078],[-83.6171721,41.052532],[-83.616936,41.052584],[-83.6166906,41.0526261],[-83.616569,41.052647],[-83.616277,41.052693],[-83.6161907,41.0527054],[-83.616073,41.052721],[-83.6159626,41.0527363],[-83.615516,41.052798],[-83.6154786,41.0528034],[-83.6148378,41.0529148],[-83.6132417,41.0531287],[-83.6127413,41.0531958],[-83.612475,41.053234],[-83.6124231,41.053241],[-83.6121708,41.0532748],[-83.6119187,41.0533085],[-83.6115563,41.053357],[-83.6110717,41.0534219],[-83.6108587,41.0534494],[-83.6098107,41.0535892],[-83.6096048,41.0536165],[-83.6092232,41.0536671],[-83.6090339,41.0536922],[-83.6079451,41.0538367],[-83.6075594,41.0538879],[-83.6072018,41.0539353],[-83.6066346,41.0540106],[-83.6066029,41.0540148],[-83.6059783,41.0540977],[-83.605841,41.054116],[-83.605657,41.0541382],[-83.6053774,41.0541746],[-83.605091,41.054212],[-83.6048973,41.0542369],[-83.604725,41.054259],[-83.6045841,41.0542771],[-83.6043393,41.0543086],[-83.60415,41.054333],[-83.6038204,41.0543755],[-83.6036187,41.0544015],[-83.6030068,41.0544803],[-83.602955,41.054487],[-83.6025268,41.0545403],[-83.602322,41.054568],[-83.6015123,41.054673],[-83.601286,41.054701],[-83.60041,41.054813],[-83.59959,41.054918],[-83.598965,41.054998],[-83.5986763,41.0550352],[-83.5985462,41.0550519],[-83.598368,41.055075],[-83.5982184,41.0550942],[-83.5968411,41.0552706],[-83.5949972,41.0555069],[-83.5948613,41.055525],[-83.5947244,41.0555426],[-83.592956,41.0557694],[-83.592802,41.055788]]},"properties":{"agency":"Ohio State Highway Patrol","county":"Hancock","location":"Tiffin Avenue","kind":"street","startsAt":"2026-05-16T01:30:00.000Z","endsAt":"2026-05-16T03:30:00.000Z","confidence":"low","method":"the length of Tiffin Avenue","jurisdictionMatch":"unchecked","sourceUrl":"https://statepatrol.ohio.gov/wps/wcm/connect/gov/Ohio+Content+English/oshp/media/all-news/patrol-announces-counties-for-statewide-ovi-checkpoint-051526","notes":["the notice names only the road; its mapped length is shown"]}},{"type":"Feature","geometry":{"type":"Point","coordinates":[-80.75278888269798,41.72408317273259]},"properties":{"agency":"Ohio State Highway Patrol","county":"Ashtabula","location":"U.S. 20 at State Road","kind":"intersection","startsAt":"2026-05-16T02:00:00.000Z","endsAt":"2026-05-16T04:00:00.000Z","confidence":"high","method":"intersection of U.S. 20 and State Road","jurisdictionMatch":"unchecked","sourceUrl":"https://statepatrol.ohio.gov/wps/wcm/connect/gov/Ohio+Content+English/oshp/media/all-news/patrol-announces-counties-for-statewide-ovi-checkpoint-051526","notes":["U.S. 20 also signed as: EAST MAIN ST, HARBOR ST, MAIN ST, STATE ST"]}},{"type":"Feature","geometry":{"type":"Point","coordinates":[-82.469139,39.997569]},"properties":{"agency":"Ohio State Highway Patrol","county":"Licking","location":"state Route 79 at Scioto Drive","kind":"intersection","startsAt":"2026-05-16T02:00:00.000Z","endsAt":"2026-05-16T04:00:00.000Z","confidence":"high","method":"intersection of state Route 79 and Scioto Drive","jurisdictionMatch":"unchecked","sourceUrl":"https://statepatrol.ohio.gov/wps/wcm/connect/gov/Ohio+Content+English/oshp/media/all-news/patrol-announces-counties-for-statewide-ovi-checkpoint-051526","notes":["state Route 79 also signed as: FALLSBURG RD NE, HEBRON RD, HEBRON RD SE, SR 79"]}},{"type":"Feature","geometry":{"type":"Point","coordinates":[-82.026837348873,39.943402392947]},"properties":{"agency":"Ohio State Highway Patrol","county":"Muskingum","location":"1623 West Main Street in Zanesville","kind":"address","startsAt":"2026-05-16T02:00:00.000Z","endsAt":"2026-05-16T04:00:00.000Z","confidence":"high","method":"street address via Census Bureau geocoder","jurisdictionMatch":"city","sourceUrl":"https://statepatrol.ohio.gov/wps/wcm/connect/gov/Ohio+Content+English/oshp/media/all-news/patrol-announces-counties-for-statewide-ovi-checkpoint-051526","notes":["matched as 1623 W MAIN ST, ZANESVILLE, OH, 43701"]}},{"type":"Feature","geometry":{"type":"Point","coordinates":[-82.131940537239,39.324584558922]},"properties":{"agency":"Ohio State Highway Patrol","county":"Athens","location":"748 West Union Street","kind":"address","startsAt":"2026-05-16T22:00:00.000Z","endsAt":"2026-05-17T00:00:00.000Z","confidence":"high","method":"street address via Census Bureau geocoder","jurisdictionMatch":"unchecked","sourceUrl":"https://content.govdelivery.com/accounts/OHOSHP/bulletins/415e597","notes":["matched as 748 W UNION ST, ATHENS, OH, 45701"]}},{"type":"Feature","geometry":{"type":"LineString","coordinates":[[-84.19151009166667,40.55361884166667],[-84.1932984,40.5534198],[-84.1928574,40.5506875],[-84.1926847,40.5494475],[-84.1925171,40.5482283],[-84.1923757,40.5472947],[-84.1919505,40.5442988],[-84.1919456,40.5442644],[-84.1919315,40.5441657],[-84.1917498,40.5428959],[-84.19139289671133,40.54040042186063]]},"properties":{"agency":"Ohio State Highway Patrol","county":"Auglaize","location":"County Road 25A, north of state Route 67","kind":"offset","startsAt":"2026-05-16T22:00:00.000Z","endsAt":"2026-05-17T00:00:00.000Z","confidence":"medium","method":"1 mi north along County Road 25A from state Route 67","jurisdictionMatch":"unchecked","sourceUrl":"https://content.govdelivery.com/accounts/OHOSHP/bulletins/415e597","notes":["offset length of 1 mi is assumed; the notice gives no distance"]}},{"type":"Feature","geometry":{"type":"Point","coordinates":[-80.954518,40.072724]},"properties":{"agency":"Ohio State Highway Patrol","county":"Belmont","location":"U.S. 40 at Friends Church Road","kind":"intersection","startsAt":"2026-05-16T22:00:00.000Z","endsAt":"2026-05-17T00:00:00.000Z","confidence":"high","method":"intersection of U.S. 40 and Friends Church Road","jurisdictionMatch":"unchecked","sourceUrl":"https://content.govdelivery.com/accounts/OHOSHP/bulletins/415e597","notes":["U.S. 40 also signed as: EAST LAWN, MAIN ST, NATIONAL RD, US 40"]}},{"type":"Feature","geometry":{"type":"Point","coordinates":[-82.1998143,38.8177156]},"properties":{"agency":"Ohio State Highway Patrol","county":"Gallia","location":"Pine Street, near Union Street","kind":"vicinity","startsAt":"2026-05-16T22:00:00.000Z","endsAt":"2026-05-17T02:00:00.000Z","confidence":"low","method":"intersection of Pine Street and Union Street","jurisdictionMatch":"unchecked","sourceUrl":"https://content.govdelivery.com/accounts/OHOSHP/bulletins/415e597","notes":[]}},{"type":"Feature","geometry":{"type":"Point","coordinates":[-82.60903224910648,41.27208201648166]},"properties":{"agency":"Ohio State Highway Patrol","county":"Huron","location":"U.S. 250 near milepost 1","kind":"milepost","startsAt":"2026-05-16T22:00:00.000Z","endsAt":"2026-05-17T00:00:00.000Z","confidence":"medium","method":"U.S. 250 at Huron county milepost 1","jurisdictionMatch":"unchecked","sourceUrl":"https://content.govdelivery.com/accounts/OHOSHP/bulletins/415e597","notes":["U.S. 250 also signed as: BENEDICT AVE, MILAN AVE, US 250, US 250 N","U.S. 250 signed there as US 250 N"]}},{"type":"Feature","geometry":{"type":"Point","coordinates":[-84.58305108194287,41.160082111515045]},"properties":{"agency":"Ohio State Highway Patrol","county":"Paulding","location":"U.S. 127 near milepost 12","kind":"milepost","startsAt":"2026-05-16T22:00:00.000Z","endsAt":"2026-05-17T00:00:00.000Z","confidence":"medium","method":"U.S. 127 at Paulding county milepost 12","jurisdictionMatch":"unchecked","sourceUrl":"https://content.govdelivery.com/accounts/OHOSHP/bulletins/415e597","notes":["U.S. 127 also signed as: US 127, E JACKSON ST, E PERRY ST, N MAIN ST"]}},{"type":"Feature","geometry":{"type":"Point","coordinates":[-83.784568,39.453536]},"properties":{"agency":"Ohio State Highway Patrol","county":"Clinton","location":"Rombach Avenue at Progress Way","kind":"intersection","startsAt":"2026-05-16T23:00:00.000Z","endsAt":"2026-05-17T01:00:00.000Z","confidence":"high","method":"intersection of Rombach Avenue and Progress Way","jurisdictionMatch":"unchecked","sourceUrl":"https://content.govdelivery.com/accounts/OHOSHP/bulletins/415e597","notes":[]}},{"type":"Feature","geometry":{"type":"Point","coordinates":[-81.652984922487,41.448247947971]},"properties":{"agency":"Ohio State Highway Patrol","county":"Cuyahoga","location":"5300 Harvard Avenue","kind":"address","startsAt":"2026-05-17T00:00:00.000Z","endsAt":"2026-05-17T04:00:00.000Z","confidence":"high","method":"street address via Census Bureau geocoder","jurisdictionMatch":"unchecked","sourceUrl":"https://content.govdelivery.com/accounts/OHOSHP/bulletins/415e597","notes":["matched as 5300 HARVARD AVE, CLEVELAND, OH, 44105"]}},{"type":"Feature","geometry":{"type":"Point","coordinates":[-81.52699254284,41.032803125436]},"properties":{"agency":"Ohio State Highway Patrol","county":"Summit","location":"1990 South Main Street in Akron","kind":"address","startsAt":"2026-05-17T00:00:00.000Z","endsAt":"2026-05-17T04:00:00.000Z","confidence":"high","method":"street address via Census Bureau geocoder","jurisdictionMatch":"city","sourceUrl":"https://content.govdelivery.com/accounts/OHOSHP/bulletins/415e597","notes":["matched as 1990 S MAIN ST, AKRON, OH, 44301"]}},{"type":"Feature","geometry":{"type":"Point","coordinates":[-81.90884847941163,40.81788896896047]},"properties":{"agency":"Ohio State Highway Patrol","county":"Wayne","location":"state Route 585 near milepost 1","kind":"milepost","startsAt":"2026-05-17T00:00:00.000Z","endsAt":"2026-05-17T03:00:00.000Z","confidence":"medium","method":"state Route 585 at Wayne county milepost 1","jurisdictionMatch":"unchecked","sourceUrl":"https://content.govdelivery.com/accounts/OHOSHP/bulletins/415e597","notes":["state Route 585 also signed as: AKRON RD, MAIN ST, SR 585","state Route 585 signed there as AKRON RD"]}},{"type":"Feature","geometry":{"type":"Point","coordinates":[-82.7773244,39.89032335]},"properties":{"agency":"Ohio State Highway Patrol","county":"Fairfield","location":"Diley Road at Long Road","kind":"intersection","startsAt":"2026-05-17T00:30:00.000Z","endsAt":"2026-05-17T04:00:00.000Z","confidence":"high","method":"intersection of Diley Road and Long Road","jurisdictionMatch":"unchecked","sourceUrl":"https://content.govdelivery.com/accounts/OHOSHP/bulletins/415e597","notes":[]}},{"type":"Feature","geometry":{"type":"Point","coordinates":[-80.66391816884206,40.88614755541753]},"properties":{"agency":"Ohio State Highway Patrol","county":"Columbiana","location":"state Route 14 near milepost 11","kind":"milepost","startsAt":"2026-05-17T01:00:00.000Z","endsAt":"2026-05-17T03:00:00.000Z","confidence":"medium","method":"state Route 14 at Columbiana county milepost 11","jurisdictionMatch":"unchecked","sourceUrl":"https://content.govdelivery.com/accounts/OHOSHP/bulletins/415e597","notes":["state Route 14 also signed as: BENTON RD, COUNTY LINE RD W, SALEM UNITY RD, SR 14"]}},{"type":"Feature","geometry":{"type":"Point","coordinates":[-84.34832838113236,41.28270172600378]},"properties":{"agency":"Ohio State Highway Patrol","county":"Defiance","location":"state Route 18 near milepost 26","kind":"milepost","startsAt":"2026-05-17T01:00:00.000Z","endsAt":"2026-05-17T03:00:00.000Z","confidence":"medium","method":"state Route 18 at Defiance county milepost 26","jurisdictionMatch":"unchecked","sourceUrl":"https://content.govdelivery.com/accounts/OHOSHP/bulletins/415e597","notes":["state Route 18 also signed as: DEFIANCE AVE, SR 18, E 2ND ST, N MAIN ST","state Route 18 signed there as E 2ND ST"]}},{"type":"Feature","geometry":{"type":"Point","coordinates":[-82.718031,41.4266153]},"properties":{"agency":"Ohio State Highway Patrol","county":"Erie","location":"state Route 4 at Bone Creek Drive","kind":"intersection","startsAt":"2026-05-17T01:00:00.000Z","endsAt":"2026-05-17T03:00:00.000Z","confidence":"high","method":"intersection of state Route 4 and Bone Creek Drive","jurisdictionMatch":"unchecked","sourceUrl":"https://content.govdelivery.com/accounts/OHOSHP/bulletins/415e597","notes":["state Route 4 also signed as: COLUMBUS AVE, HAYES AVE, SR 4"]}},{"type":"Feature","geometry":{"type":"Point","coordinates":[-84.233375,40.1629923]},"properties":{"agency":"Ohio State Highway Patrol","county":"Miami","location":"County Road 25A and Industry Park Drive","kind":"intersection","startsAt":"2026-05-17T01:00:00.000Z","endsAt":"2026-05-17T03:00:00.000Z","confidence":"high","method":"intersection of County Road 25A and Industry Park Drive","jurisdictionMatch":"unchecked","sourceUrl":"https://content.govdelivery.com/accounts/OHOSHP/bulletins/415e597","notes":[]}},{"type":"Feature","geometry":{"type":"Point","coordinates":[-84.25494706789529,39.05329482006662]},"properties":{"agency":"Ohio State Highway Patrol","county":"Clermont","location":"state Route 125 near milepost 3.5","kind":"milepost","startsAt":"2026-05-17T02:00:00.000Z","endsAt":"2026-05-17T04:00:00.000Z","confidence":"medium","method":"state Route 125 at Clermont county milepost 3.5","jurisdictionMatch":"unchecked","sourceUrl":"https://content.govdelivery.com/accounts/OHOSHP/bulletins/415e597","notes":["state Route 125 also signed as: SR 125, E MAIN ST, E PLANE ST, W MAIN ST"]}},{"type":"Feature","geometry":{"type":"Point","coordinates":[-81.569176914628,39.278227419505]},"properties":{"agency":"Ohio State Highway Patrol","county":"Washington","location":"619 Maine Street in Belpre","kind":"address","startsAt":"2026-05-17T02:00:00.000Z","endsAt":"2026-05-17T04:00:00.000Z","confidence":"high","method":"street address via Census Bureau geocoder","jurisdictionMatch":"city","sourceUrl":"https://content.govdelivery.com/accounts/OHOSHP/bulletins/415e597","notes":["matched as 619 MAIN ST, BELPRE, OH, 45714"]}},{"type":"Feature","geometry":{"type":"LineString","coordinates":[[-82.83849,39.95471],[-82.8382432,39.9546576],[-82.8381185,39.9546592],[-82.8379072,39.954662],[-82.8378212,39.9546634],[-82.8377216,39.9546649],[-82.8374462,39.9546668],[-82.8373224,39.9546699],[-82.8371477,39.9546716],[-82.8366906,39.9546787],[-82.8362719,39.9546852],[-82.8356538,39.9546898],[-82.835574,39.9546904],[-82.8353469,39.9547552],[-82.8350425,39.9547575],[-82.8344411,39.9547621],[-82.833758,39.9547673],[-82.8335,39.9547692],[-82.8334579,39.9547696],[-82.833356,39.9547703],[-82.8329711,39.9547733],[-82.8329361,39.9547735],[-82.8327861,39.9547747],[-82.8326165,39.954776],[-82.8323549,39.9547779],[-82.8320465,39.9547803],[-82.8314641,39.9547847],[-82.8311151,39.9547874],[-82.831081,39.9547876],[-82.8309111,39.9547889],[-82.8308607,39.9547893],[-82.8307612,39.9547901],[-82.8306376,39.954791],[-82.8304497,39.9547924],[-82.8301113,39.954795],[-82.829953,39.9547962],[-82.8298511,39.954797],[-82.8296526,39.9547985],[-82.8295776,39.9547991],[-82.8294046,39.9547998],[-82.8292335,39.9548017],[-82.828824,39.9548049],[-82.8286788,39.9548058],[-82.8281748,39.9548143],[-82.8279552,39.954818],[-82.8278698,39.9548195],[-82.8277491,39.9548215],[-82.8276746,39.9548227],[-82.827388,39.9548276],[-82.8268592,39.9548365],[-82.8267541,39.9548383],[-82.8265573,39.9548416],[-82.8257056,39.9548558],[-82.8255368,39.9548589],[-82.825278,39.9548632],[-82.8250978,39.9548663],[-82.8248423,39.9548706],[-82.8245327,39.9548758],[-82.8242503,39.9548806],[-82.8241979,39.9548815],[-82.8239924,39.954885],[-82.8238304,39.9548877],[-82.8236339,39.954891],[-82.8235803,39.9548919],[-82.8231635,39.954899],[-82.8228047,39.954905],[-82.8227051,39.9549067],[-82.822626,39.9549081],[-82.8224229,39.9549115],[-82.8222802,39.9549139],[-82.8220807,39.9549173],[-82.8219728,39.9549191],[-82.8218288,39.9549215],[-82.8214173,39.9549285],[-82.8212874,39.9549307],[-82.821185,39.9549324],[-82.8209871,39.9549358],[-82.8208597,39.9549379],[-82.820326,39.9549469],[-82.8202167,39.9549488],[-82.8200404,39.9549518],[-82.81963656072926,39.954958699066054]]},"properties":{"agency":"Franklin County Sheriff's Office","county":"Franklin","location":"US 40 e/o McNaughten Rd, located in the Township of Truro","kind":"offset","startsAt":"2026-07-25T00:00:00.000Z","endsAt":"2026-07-25T04:30:00.000Z","confidence":"medium","method":"1 mi east along US 40 from McNaughten Rd","jurisdictionMatch":"township","sourceUrl":"https://sheriff.franklincountyohio.gov/About-Us/Public-Affairs-Media-Relations/2026/07-24-DUI-Checkpoint-in-Truro-Township","notes":["US 40 also signed as: E BROAD ST, E MAIN ST, S DREXEL AVE, W BROAD ST","offset length of 1 mi is assumed; the notice gives no distance"]}},{"type":"Feature","geometry":null,"properties":{"pending":true,"agency":"Ohio State Highway Patrol","county":"Crawford","location":"location not yet announced","announcedFor":"2026-08-15","sourceUrl":"https://statepatrol.ohio.gov/wps/wcm/connect/gov/Ohio+Content+English/oshp/media/all-news/ovi-checkpoint-08152026","notes":[]}},{"type":"Feature","geometry":null,"properties":{"pending":true,"agency":"Ohio State Highway Patrol","county":"Marion","location":"location not yet announced","announcedFor":"2026-08-15","sourceUrl":"https://statepatrol.ohio.gov/wps/wcm/connect/gov/Ohio+Content+English/oshp/media/all-news/ovi-checkpoint-08152026","notes":[]}},{"type":"Feature","geometry":null,"properties":{"pending":true,"agency":"Ohio State Highway Patrol","county":"Tuscarawas","location":"location not yet announced","announcedFor":"2026-08-15","sourceUrl":"https://statepatrol.ohio.gov/wps/wcm/connect/gov/Ohio+Content+English/oshp/media/all-news/ovi-checkpoint-08152026","notes":[]}},{"type":"Feature","geometry":null,"properties":{"pending":true,"agency":"Ohio State Highway Patrol","county":"Union","location":"location not yet announced","announcedFor":"2026-08-15","sourceUrl":"https://statepatrol.ohio.gov/wps/wcm/connect/gov/Ohio+Content+English/oshp/media/all-news/ovi-checkpoint-08152026","notes":[]}},{"type":"Feature","geometry":null,"properties":{"pending":true,"agency":"Ohio State Highway Patrol","county":"Washington","location":"location not yet announced","announcedFor":"2026-08-15","sourceUrl":"https://statepatrol.ohio.gov/wps/wcm/connect/gov/Ohio+Content+English/oshp/media/all-news/ovi-checkpoint-08152026","notes":[]}}]}
